[{"OBJECT_NAME":"STARLINK-31896","OBJECT_ID":"2024-097S","EPOCH":"2026-03-09T22:18:07.007328","MEAN_MOTION":15.27570955,"ECCENTRICITY":0.00022971,"INCLINATION":43.0039,"RA_OF_ASC_NODE":272.9882,"ARG_OF_PERICENTER":270.2749,"MEAN_ANOMALY":89.7839,"EPHEMERIS_TYPE":0,"CLASSIFICATION_TYPE":"U","NORAD_CAT_ID":59851,"ELEMENT_SET_NO":999,"REV_AT_EPOCH":10195,"BSTAR":-2.0240417e-5,"MEAN_MOTION_DOT":-8.19e-6,"MEAN_MOTION_DDOT":0},{"OBJECT_NAME":"OBJECT H","OBJECT_ID":"2026-023H","EPOCH":"2026-03-09T17:12:47.154816","MEAN_MOTION":15.23139098,"ECCENTRICITY":0.00239537,"INCLINATION":96.639,"RA_OF_ASC_NODE":144.1723,"ARG_OF_PERICENTER":117.6533,"MEAN_ANOMALY":242.7142,"EPHEMERIS_TYPE":0,"CLASSIFICATION_TYPE":"U","NORAD_CAT_ID":67681,"ELEMENT_SET_NO":999,"REV_AT_EPOCH":484,"BSTAR":0.00052586846,"MEAN_MOTION_DOT":0.00012465,"MEAN_MOTION_DDOT":0}]
